0 PSLV DEB
1 27286U 01049JJ  13282.51601232  .00021169  00000-0  95006-3 0  4521
2 27286 097.3624 291.9843 0036465 223.0459 136.7923 15.20597570643682
0 PSLV DEB
1 27286U 01049JJ  13282.97665185  .00019448  00000-0  87310-3 0  4535
2 27286 097.3624 292.4346 0036475 221.4236 138.4233 15.20604616643753
0 PSLV DEB
1 27286U 01049JJ  13283.70051688  .00022522  00000-0  10095-2 0  4547
2 27286 097.3635 293.1392 0036654 219.1861 140.7230 15.20625473643860
0 PSLV DEB
1 27286U 01049JJ  13283.96372530  .00018078  00000-0  81118-3 0  4543
2 27286 097.3625 293.3987 0036581 217.8233 142.0431 15.20633137643907
0 PSLV DEB
1 27286U 01049JJ  13285.27979468  .00015999  00000-0  71754-3 0  4557
2 27286 097.3623 294.6845 0036792 213.1403 146.7528 15.20670121644109
0 PSLV DEB
1 27286U 01049JJ  13286.72743520  .00017543  00000-0  78534-3 0  4567
2 27286 097.3620 296.0990 0036913 207.9749 151.9504 15.20709356644321
0 PSLV DEB
1 27286U 01049JJ  13287.97763816  .00027706  00000-0  12350-2 0  4571
2 27286 097.3615 297.3205 0036974 203.4424 156.5128 15.20757230644514
0 PSLV DEB
1 27286U 01049JJ  13289.03040525  .00022616  00000-0  10079-2 0  4587
2 27286 097.3609 298.3492 0037089 199.6729 160.3078 15.20802512644676
0 PSLV DEB
1 27286U 01049JJ  13290.28053042  .00023099  00000-0  10280-2 0  4595
2 27286 097.3605 299.5709 0037231 195.3091 164.7021 15.20840940644864
0 PSLV DEB
1 27286U 01049JJ  13291.46482937  .00020562  00000-0  91443-3 0  4600
2 27286 097.3606 300.7277 0037407 191.1584 168.8826 15.20882655645044
0 PSLV DEB
1 27286U 01049JJ  13292.51751551  .00018379  00000-0  81699-3 0  4614
2 27286 097.3608 301.7561 0037508 187.3932 172.6755 15.20917164645205
0 PSLV DEB
1 27286U 01049JJ  13293.83333553  .00021061  00000-0  93405-3 0  4629
2 27286 097.3608 303.0419 0037683 182.7005 177.4034 15.20962024645406
0 PSLV DEB
1 27286U 01049JJ  13295.01753670  .00022919  00000-0  10144-2 0  4639
2 27286 097.3609 304.1988 0037812 178.6347 181.4999 15.21008769645589
